[{"OBJECT_NAME":"STARLINK-5566","OBJECT_ID":"2023-046AT","EPOCH":"2026-03-09T22:00:01.999584","MEAN_MOTION":15.12052582,"ECCENTRICITY":0.00020675,"INCLINATION":43,"RA_OF_ASC_NODE":144.2399,"ARG_OF_PERICENTER":266.1093,"MEAN_ANOMALY":31.7513,"EPHEMERIS_TYPE":0,"CLASSIFICATION_TYPE":"U","NORAD_CAT_ID":56133,"ELEMENT_SET_NO":999,"REV_AT_EPOCH":567,"BSTAR":0.00030938791,"MEAN_MOTION_DOT":5.194e-5,"MEAN_MOTION_DDOT":0},{"OBJECT_NAME":"GEESAT-4 08","OBJECT_ID":"2025-170H","EPOCH":"2026-03-09T21:04:12.427104","MEAN_MOTION":15.14705127,"ECCENTRICITY":0.00114102,"INCLINATION":49.9764,"RA_OF_ASC_NODE":229.0077,"ARG_OF_PERICENTER":340.9051,"MEAN_ANOMALY":19.1471,"EPHEMERIS_TYPE":0,"CLASSIFICATION_TYPE":"U","NORAD_CAT_ID":65126,"ELEMENT_SET_NO":999,"REV_AT_EPOCH":3229,"BSTAR":0.00074081208,"MEAN_MOTION_DOT":0.00013648,"MEAN_MOTION_DDOT":0}]
